[{"OBJECT_NAME":"STARLINK-32011","OBJECT_ID":"2024-111Q","EPOCH":"2026-03-09T08:00:20.622528","MEAN_MOTION":15.30159734,"ECCENTRICITY":0.00012588,"INCLINATION":53.1604,"RA_OF_ASC_NODE":76.9489,"ARG_OF_PERICENTER":96.6358,"MEAN_ANOMALY":263.4786,"EPHEMERIS_TYPE":0,"CLASSIFICATION_TYPE":"U","NORAD_CAT_ID":60030,"ELEMENT_SET_NO":999,"REV_AT_EPOCH":9898,"BSTAR":-0.00017558586,"MEAN_MOTION_DOT":-5.549e-5,"MEAN_MOTION_DDOT":0},{"OBJECT_NAME":"PHISAT 2","OBJECT_ID":"2024-149C","EPOCH":"2026-03-09T18:55:12.732384","MEAN_MOTION":15.29548632,"ECCENTRICITY":0.00011753,"INCLINATION":97.3806,"RA_OF_ASC_NODE":148.6498,"ARG_OF_PERICENTER":168.623,"MEAN_ANOMALY":191.5037,"EPHEMERIS_TYPE":0,"CLASSIFICATION_TYPE":"U","NORAD_CAT_ID":60470,"ELEMENT_SET_NO":999,"REV_AT_EPOCH":8679,"BSTAR":0.00031420974,"MEAN_MOTION_DOT":8.925e-5,"MEAN_MOTION_DDOT":0}]
